NORAD_CAT_ID,OBJECT_NAME,OBJECT_TYPE,EPOCH,MEAN_MOTION,ECCENTRICITY,INCLINATION,RA_OF_ASC_NODE,ARG_OF_PERICENTER,MEAN_ANOMALY,BSTAR,MEAN_MOTION_DOT,MEAN_MOTION_DDOT,TLE_LINE0,TLE_LINE1,TLE_LINE2,SEMIMAJOR_AXIS,PERIOD,APOGEE,PERIGEE,DECAYED
49181.0,STARLINK-3059,PAYLOAD,2021-12-15 22:00:01,15.17742268,0.0003249,70.0001,229.9183,279.3535,357.5139,-0.034967,-0.00663123,0.0,0 STARLINK-3059,1 49181U 21082BD  21349.91668981 -.00663123  00000-0 -34967-1 0  9996,2 49181  70.0001 229.9183 0003249 279.3535 357.5139 15.17742268 15742,6890.803000000001,94.878,514.9069999999998,510.429,0.0
49181.0,STARLINK-3059,PAYLOAD,2021-12-16 14:00:01,15.16807359,0.0003241,69.9999,228.1874,270.0249,47.1805,-0.035936,-0.00663421,0.0,0 STARLINK-3059,1 49181U 21082BD  21350.58334491 -.00663421  00000-0 -35936-1 0  9995,2 49181  69.9999 228.1874 0003241 270.0249  47.1805 15.16807359  3634,6893.634,94.936,517.7330000000002,513.265,0.0
49181.0,STARLINK-3059,PAYLOAD,2021-12-16 22:06:49,15.17572083,0.000395,69.9954,227.3064,260.2502,99.8221,-0.0096767,-0.00189993,0.0,0 STARLINK-3059,1 49181U 21082BD  21350.92140280 -.00189993  00000-0 -96767-2 0  9991,2 49181  69.9954 227.3064 0003950 260.2502  99.8221 15.17572083 15911,6891.318,94.888,515.905,510.461,0.0
49181.0,STARLINK-3059,PAYLOAD,2021-12-17 04:00:00,15.15989885,0.0003194,69.9998,226.6748,268.3974,352.3191,-0.036808,-0.00663794,0.0,0 STARLINK-3059,1 49181U 21082BD  21351.16667824 -.00663794  00000-0 -36808-1 0  9991,2 49181  69.9998 226.6748 0003194 268.3974 352.3191 15.15989885 15937,6896.111999999999,94.987,520.18,515.774,0.0
49181.0,STARLINK-3059,PAYLOAD,2021-12-17 21:52:11,15.16325793,0.0005011,69.9978,224.7439,242.929,117.1367,-0.0092769,-0.00176136,0.0,0 STARLINK-3059,1 49181U 21082BD  21351.91124190 -.00176136  00000-0 -92769-2 0  9996,2 49181  69.9978 224.7439 0005011 242.9290 117.1367 15.16325793 16060,6895.093000000003,94.966,520.414,513.503,0.0
49181.0,STARLINK-3059,PAYLOAD,2021-12-18 06:00:00,15.14472268,0.0003307,69.9998,223.8709,268.3783,140.0183,-0.038627,-0.00667013,0.0,0 STARLINK-3059,1 49181U 21082BD  21352.25001157 -.00667013  00000-0 -38627-1 0  9992,2 49181  69.9998 223.8709 0003307 268.3783 140.0183 15.14472268 16099,6900.718000000003,95.083,524.865,520.3009999999998,0.0
49181.0,STARLINK-3059,PAYLOAD,2021-12-18 14:00:01,15.14002318,0.0003291,70.0,223.0095,271.0303,153.9236,-0.038887,-0.00662915,0.0,0 STARLINK-3059,1 49181U 21082BD  21352.58334491 -.00662915  00000-0 -38887-1 0  9992,2 49181  70.0000 223.0095 0003291 271.0303 153.9236 15.14002318  3630,6902.146,95.112,526.283,521.74,0.0
49181.0,STARLINK-3059,PAYLOAD,2021-12-18 21:39:12,15.14818051,0.0003118,69.9961,222.1831,251.7553,108.3276,-0.010512,-0.00190786,0.0,0 STARLINK-3059,1 49181U 21082BD  21352.90223014 -.00190786  00000-0 -10512-1 0  9993,2 49181  69.9961 222.1831 0003118 251.7553 108.3276 15.14818051 16216,6899.668000000002,95.061,523.684,519.382,0.0
49181.0,STARLINK-3059,PAYLOAD,2021-12-19 14:00:01,15.12600851,0.0003233,70.0,220.429,274.5933,196.6658,-0.04055,-0.00664461,0.0,0 STARLINK-3059,1 49181U 21082BD  21353.58334491 -.00664461  00000-0 -40550-1 0  9991,2 49181  70.0000 220.4290 0003233 274.5933 196.6658 15.12600851 16305,6906.409000000002,95.2,530.507,526.0409999999998,0.0
49181.0,STARLINK-3059,PAYLOAD,2021-12-19 22:00:00,15.12133409,0.0003221,70.0001,219.5702,278.2947,207.2786,-0.041125,-0.0066509,0.0,0 STARLINK-3059,1 49181U 21082BD  21353.91667824 -.00665090  00000-0 -41125-1 0  9995,2 49181  70.0001 219.5702 0003221 278.2947 207.2786 15.12133409  3640,6907.831999999999,95.23,531.922,527.472,0.0
49181.0,STARLINK-3059,PAYLOAD,2021-12-20 14:00:01,15.11199042,0.0003094,70.0,217.8541,274.3845,238.1343,-0.042244,-0.00665588,0.0,0 STARLINK-3059,1 49181U 21082BD  21354.58334491 -.00665588  00000-0 -42244-1 0  9995,2 49181  70.0000 217.8541 0003094 274.3845 238.1343 15.11199042  3638,6910.679,95.289,534.682,530.406,0.0
49181.0,STARLINK-3059,PAYLOAD,2021-12-20 21:16:51,15.12042623,0.0003372,69.9955,217.0686,253.9726,106.1068,-0.011376,-0.00191009,0.0,0 STARLINK-3059,1 49181U 21082BD  21354.88671279 -.00191009  00000-0 -11376-1 0  9990,2 49181  69.9955 217.0686 0003372 253.9726 106.1068 15.12042623 16518,6908.109,95.235,532.303,527.644,0.0
49181.0,STARLINK-3059,PAYLOAD,2021-12-20 22:00:01,15.1073008,0.0003152,70.0,216.997,276.8466,248.368,-0.04267,-0.00663738,0.0,0 STARLINK-3059,1 49181U 21082BD  21354.91668981 -.00663738  00000-0 -42670-1 0  9994,2 49181  70.0000 216.9970 0003152 276.8466 248.3680 15.10730080 16504,6912.109,95.318,536.153,531.795,0.0
49181.0,STARLINK-3059,PAYLOAD,2021-12-21 14:00:01,15.09714046,0.0003125,69.9993,215.2836,273.577,275.1981,-0.035938,-0.00544781,0.0,0 STARLINK-3059,1 49181U 21082BD  21355.58334491 -.00544781  00000-0 -35938-1 0  9999,2 49181  69.9993 215.2836 0003125 273.5770 275.1981 15.09714046  3608,6915.21,95.382,539.236,534.914,0.0
49181.0,STARLINK-3059,PAYLOAD,2021-12-21 22:00:00,15.09326928,0.0003092,70.0,214.4294,275.4131,284.2712,-0.044262,-0.00662419,0.0,0 STARLINK-3059,1 49181U 21082BD  21355.91667824 -.00662419  00000-0 -44262-1 0  9994,2 49181  70.0000 214.4294 0003092 275.4131 284.2712 15.09326928  3627,6916.392,95.407,540.396,536.119,0.0
49181.0,STARLINK-3059,PAYLOAD,2021-12-22 06:00:00,15.08861337,0.000311,69.9998,213.5747,263.7572,306.3156,-0.045012,-0.00664917,0.0,0 STARLINK-3059,1 49181U 21082BD  21356.25001157 -.00664917  00000-0 -45012-1 0  9992,2 49181  69.9998 213.5747 0003110 263.7572 306.3156 15.08861337 16701,6917.815,95.436,541.832,537.529,0.0
49181.0,STARLINK-3059,PAYLOAD,2021-12-22 14:00:01,15.08394247,0.0003086,70.0,212.7209,271.5612,308.3401,-0.045614,-0.00665217,0.0,0 STARLINK-3059,1 49181U 21082BD  21356.58334491 -.00665217  00000-0 -45614-1 0  9990,2 49181  70.0000 212.7209 0003086 271.5612 308.3401 15.08394247  3629,6919.243,95.466,543.243,538.9730000000002,0.0
49181.0,STARLINK-3059,PAYLOAD,2021-12-22 22:00:00,15.07924195,0.0003086,70.0,211.8674,273.8275,315.3434,-0.045948,-0.00661762,0.0,0 STARLINK-3059,1 49181U 21082BD  21356.91667824 -.00661762  00000-0 -45948-1 0  9997,2 49181  70.0000 211.8674 0003086 273.8275 315.3434 15.07924195  3641,6920.681,95.496,544.682,540.41,0.0
49181.0,STARLINK-3059,PAYLOAD,2021-12-23 14:00:01,15.0699138,0.0003094,70.0001,210.1626,270.4541,335.5702,-0.047323,-0.00664298,0.0,0 STARLINK-3059,1 49181U 21082BD  21357.58334491 -.00664298  00000-0 -47323-1 0  9998,2 49181  70.0001 210.1626 0003094 270.4541 335.5702 15.06991380 16903,6923.5369999999975,95.555,547.544,543.26,0.0
49181.0,STARLINK-3059,PAYLOAD,2021-12-23 22:00:00,15.06521748,0.000309,70.0,209.311,272.9789,340.6327,-0.047717,-0.0066153,0.0,0 STARLINK-3059,1 49181U 21082BD  21357.91667824 -.00661530  00000-0 -47717-1 0  9997,2 49181  70.0000 209.3110 0003090 272.9789 340.6327 15.06521748  3630,6924.975,95.584,548.98,544.701,0.0
49181.0,STARLINK-3059,PAYLOAD,2021-12-24 14:00:01,15.05429044,0.0003202,69.9994,207.6086,266.4626,0.7265,-0.032624,-0.00441382,0.0,0 STARLINK-3059,1 49181U 21082BD  21358.58334491 -.00441382  00000-0 -32624-1 0  9994,2 49181  69.9994 207.6086 0003202 266.4626   0.7265 15.05429044  3590,6928.326,95.654,552.409,547.9730000000002,0.0
49181.0,STARLINK-3059,PAYLOAD,2021-12-24 22:00:00,15.05119485,0.0003112,70.0,206.7601,272.6161,0.3906,-0.049572,-0.006617,0.0,0 STARLINK-3059,1 49181U 21082BD  21358.91667824 -.00661700  00000-0 -49572-1 0  9998,2 49181  70.0000 206.7601 0003112 272.6161   0.3906 15.05119485 17102,6929.276,95.673,553.297,548.985,0.0
49181.0,STARLINK-3059,PAYLOAD,2021-12-25 14:00:01,15.04186203,0.0003136,70.0002,205.0626,267.6513,15.4813,-0.050976,-0.00663488,0.0,0 STARLINK-3059,1 49181U 21082BD  21359.58334491 -.00663488  00000-0 -50976-1 0  9998,2 49181  70.0002 205.0626 0003136 267.6513  15.4813 15.04186203  3610,6932.142,95.733,556.181,551.8330000000002,0.0
49181.0,STARLINK-3059,PAYLOAD,2021-12-25 22:00:00,15.03717252,0.0003123999999999,70.0,204.2148,270.6794,16.6765,-0.05149,-0.00661928,0.0,0 STARLINK-3059,1 49181U 21082BD  21359.91667824 -.00661928  00000-0 -51490-1 0  9993,2 49181  70.0000 204.2148 0003124 270.6794  16.6765 15.03717252  3612,6933.583000000001,95.763,557.614,553.2819999999998,0.0
49181.0,STARLINK-3059,PAYLOAD,2021-12-26 06:00:02,15.03251652,0.0003168,69.9999,203.3675,263.7919,27.288,-0.052439,-0.00665564,0.0,0 STARLINK-3059,1 49181U 21082BD  21360.25002315 -.00665564  00000-0 -52439-1 0  9994,2 49181  69.9999 203.3675 0003168 263.7919  27.2880 15.03251652 17305,6935.015,95.792,559.077,554.683,0.0
49181.0,STARLINK-3059,PAYLOAD,2021-12-26 14:00:01,15.02783448,0.0003154,70.0002,202.521,271.1699,22.9484,-0.052868,-0.00662876,0.0,0 STARLINK-3059,1 49181U 21082BD  21360.58334491 -.00662876  00000-0 -52868-1 0  9992,2 49181  70.0002 202.5210 0003154 271.1699  22.9484 15.02783448  3604,6936.455,95.822,560.508,556.132,0.0
49181.0,STARLINK-3059,PAYLOAD,2021-12-26 22:00:00,15.02315997,0.0003143,70.0001,201.675,272.9044,23.7549,-0.053679,-0.00664621,0.0,0 STARLINK-3059,1 49181U 21082BD  21360.91667824 -.00664621  00000-0 -53679-1 0  9999,2 49181  70.0001 201.6750 0003143 272.9044  23.7549 15.02315997  3604,6937.894,95.852,561.939,557.578,0.0
49181.0,STARLINK-3059,PAYLOAD,2021-12-27 06:00:00,15.01716491,0.0003092,69.9999,200.8296,266.1121,32.5482,-0.017286,-0.00218568,0.0,0 STARLINK-3059,1 49181U 21082BD  21361.25001157 -.00218568  00000-0 -17286-1 0  9997,2 49181  69.9999 200.8296 0003092 266.1121  32.5482 15.01716491 17452,6939.74,95.89,563.751,559.4590000000002,0.0
49181.0,STARLINK-3059,PAYLOAD,2021-12-27 14:00:01,15.01626327,0.0003135,70.0002,199.9849,273.4294,26.6657,-0.012455,-0.00158468,0.0,0 STARLINK-3059,1 49181U 21082BD  21361.58334491 -.00158468  00000-0 -12455-1 0  9998,2 49181  70.0002 199.9849 0003135 273.4294  26.6657 15.01626327 17504,6940.018,95.896,564.059,559.707,0.0
